{"type": "FeatureCollection", "features": [ {"type": "Feature", "properties": {"norad_id": 57401, "name": "TIANMU-1 09", "group": "weather", "lat": -70.52110712852591, "lon": -168.63470529408855, "alt_km": 493.4682554830151, "timestamp": "2025-12-09T07:41:32.845192+00:00", "meta": {"OBJECT_NAME": "TIANMU-1 09", "OBJECT_ID": "2023-101C", "EPOCH": "2025-12-08T22:44:07.725696", "MEAN_MOTION": 15.27996198, "ECCENTRICITY": 0.00068186, "INCLINATION": 97.2821, "RA_OF_ASC_NODE": 32.1949, "ARG_OF_PERICENTER": 93.9355, "MEAN_ANOMALY": 266.2664, "EPHEMERIS_TYPE": 0, "CLASSIFICATION_TYPE": "U", "NORAD_CAT_ID": 57401, "ELEMENT_SET_NO": 999, "REV_AT_EPOCH": 13257, "BSTAR": 0.00035003602, "MEAN_MOTION_DOT": 9.497e-05, "MEAN_MOTION_DDOT": 0}, "tle": {"line1": "1 57401U 23101C   25342.94731164  .00009497  00000+0  35004-3 0  9998", "line2": "2 57401  97.2821  32.1949 0006818  93.9355 266.2664 15.27996198132570"}}, "geometry": {"type": "Point", "coordinates": [-168.63470529408855, -70.52110712852591]}}, {"type": "Feature", "properties": {"norad_id": 57402, "name": "TIANMU-1 10", "group": "weather", "lat": 62.82943178360992, "lon": 18.962950479009386, "alt_km": 470.59352219857556, "timestamp": "2025-12-09T07:41:32.845202+00:00", "meta": {"OBJECT_NAME": "TIANMU-1 10", "OBJECT_ID": "2023-101D", "EPOCH": "2025-12-08T23:33:22.083840", "MEAN_MOTION": 15.2798746, "ECCENTRICITY": 0.00085563, "INCLINATION": 97.2902, "RA_OF_ASC_NODE": 33.0741, "ARG_OF_PERICENTER": 94.1447, "MEAN_ANOMALY": 266.0771, "EPHEMERIS_TYPE": 0, "CLASSIFICATION_TYPE": "U", "NORAD_CAT_ID": 57402, "ELEMENT_SET_NO": 999, "REV_AT_EPOCH": 13257, "BSTAR": 0.00034032168, "MEAN_MOTION_DOT": 9.232e-05, "MEAN_MOTION_DDOT": 0}, "tle": {"line1": "1 57402U 23101D   25342.98150560  .00009232  00000+0  34032-3 0  9995", "line2": "2 57402  97.2902  33.0741 0008556  94.1447 266.0771 15.27987460132576"}}, "geometry": {"type": "Point", "coordinates": [18.962950479009386, 62.82943178360992]}}, {"type": "Feature", "properties": {"norad_id": 57490, "name": "FENGYUN 3F", "group": "weather", "lat": -32.06659130541039, "lon": -133.8413600069837, "alt_km": 831.9742465726858, "timestamp": "2025-12-09T07:41:32.845212+00:00", "meta": {"OBJECT_NAME": "FENGYUN 3F", "OBJECT_ID": "2023-111A", "EPOCH": "2025-12-08T22:14:21.219936", "MEAN_MOTION": 14.19891917, "ECCENTRICITY": 6.6e-05, "INCLINATION": 98.7088, "RA_OF_ASC_NODE": 51.2815, "ARG_OF_PERICENTER": 94.6792, "MEAN_ANOMALY": 265.446, "EPHEMERIS_TYPE": 0, "CLASSIFICATION_TYPE": "U", "NORAD_CAT_ID": 57490, "ELEMENT_SET_NO": 999, "REV_AT_EPOCH": 12186, "BSTAR": 8.6714927e-05, "MEAN_MOTION_DOT": 1.4e-06, "MEAN_MOTION_DDOT": 0}, "tle": {"line1": "1 57490U 23111A   25342.92663449  .00000140  00000+0  86715-4 0  9997", "line2": "2 57490  98.7088  51.2815 0000660  94.6792 265.4460 14.19891917121863"}}, "geometry": {"type": "Point", "coordinates": [-133.8413600069837, -32.06659130541039]}}, {"type": "Feature", "properties": {"norad_id": 58584, "name": "ARKTIKA-M 2", "group": "weather", "lat": -45.89545306492742, "lon": 143.85041790312252, "alt_km": 2759.902125662463, "timestamp": "2025-12-09T07:41:32.845243+00:00", "meta": {"OBJECT_NAME": "ARKTIKA-M 2", "OBJECT_ID": "2023-198A", "EPOCH": "2025-12-07T20:14:37.201632", "MEAN_MOTION": 2.00604572, "ECCENTRICITY": 0.68645726, "INCLINATION": 63.2245, "RA_OF_ASC_NODE": 175.4245, "ARG_OF_PERICENTER": 268.1228, "MEAN_ANOMALY": 18.8285, "EPHEMERIS_TYPE": 0, "CLASSIFICATION_TYPE": "U", "NORAD_CAT_ID": 58584, "ELEMENT_SET_NO": 999, "REV_AT_EPOCH": 1448, "BSTAR": 0, "MEAN_MOTION_DOT": 1.69e-06, "MEAN_MOTION_DDOT": 0}, "tle": {"line1": "1 58584U 23198A   25341.84348613  .00000169  00000+0  00000+0 0  9999", "line2": "2 58584  63.2245 175.4245 6864572 268.1228  18.8285  2.00604572 14484"}}, "geometry": {"type": "Point", "coordinates": [143.85041790312252, -45.89545306492742]}}, {"type": "Feature", "properties": {"norad_id": 58645, "name": "TIANMU-1 11", "group": "weather", "lat": -72.88898554189936, "lon": 27.83247974954673, "alt_km": 495.1031574706358, "timestamp": "2025-12-09T07:41:32.845259+00:00", "meta": {"OBJECT_NAME": "TIANMU-1 11", "OBJECT_ID": "2023-205A", "EPOCH": "2025-12-09T00:08:31.407648", "MEAN_MOTION": 15.24527849, "ECCENTRICITY": 0.0008248, "INCLINATION": 97.3606, "RA_OF_ASC_NODE": 2.6947, "ARG_OF_PERICENTER": 325.5319, "MEAN_ANOMALY": 34.5382, "EPHEMERIS_TYPE": 0, "CLASSIFICATION_TYPE": "U", "NORAD_CAT_ID": 58645, "ELEMENT_SET_NO": 999, "REV_AT_EPOCH": 10852, "BSTAR": 0.00032472716, "MEAN_MOTION_DOT": 7.928e-05, "MEAN_MOTION_DDOT": 0}, "tle": {"line1": "1 58645U 23205A   25343.00591907  .00007928  00000+0  32473-3 0  9995", "line2": "2 58645  97.3606   2.6947 0008248 325.5319  34.5382 15.24527849108527"}}, "geometry": {"type": "Point", "coordinates": [27.83247974954673, -72.88898554189936]}}, {"type": "Feature", "properties": {"norad_id": 58646, "name": "TIANMU-1 12", "group": "weather", "lat": 40.26714163106606, "lon": -170.90412016787937, "alt_km": 493.57723014442763, "timestamp": "2025-12-09T07:41:32.845273+00:00", "meta": {"OBJECT_NAME": "TIANMU-1 12", "OBJECT_ID": "2023-205B", "EPOCH": "2025-12-08T16:54:17.464320", "MEAN_MOTION": 15.2440473, "ECCENTRICITY": 0.00061116, "INCLINATION": 97.3594, "RA_OF_ASC_NODE": 2.2053, "ARG_OF_PERICENTER": 309.5629, "MEAN_ANOMALY": 50.5068, "EPHEMERIS_TYPE": 0, "CLASSIFICATION_TYPE": "U", "NORAD_CAT_ID": 58646, "ELEMENT_SET_NO": 999, "REV_AT_EPOCH": 10846, "BSTAR": 0.00036097392, "MEAN_MOTION_DOT": 8.785e-05, "MEAN_MOTION_DDOT": 0}, "tle": {"line1": "1 58646U 23205B   25342.70436880  .00008785  00000+0  36097-3 0  9998", "line2": "2 58646  97.3594   2.2053 0006111 309.5629  50.5068 15.24404730108466"}}, "geometry": {"type": "Point", "coordinates": [-170.90412016787937, 40.26714163106606]}}, {"type": "Feature", "properties": {"norad_id": 58647, "name": "TIANMU-1 13", "group": "weather", "lat": -44.86310738379681, "lon": 10.403293626844656, "alt_km": 495.64059066519894, "timestamp": "2025-12-09T07:41:32.845294+00:00", "meta": {"OBJECT_NAME": "TIANMU-1 13", "OBJECT_ID": "2023-205C", "EPOCH": "2025-12-09T00:00:50.865408", "MEAN_MOTION": 15.24451341, "ECCENTRICITY": 0.00060775, "INCLINATION": 97.3622, "RA_OF_ASC_NODE": 2.6956, "ARG_OF_PERICENTER": 284.378, "MEAN_ANOMALY": 75.6783, "EPHEMERIS_TYPE": 0, "CLASSIFICATION_TYPE": "U", "NORAD_CAT_ID": 58647, "ELEMENT_SET_NO": 999, "REV_AT_EPOCH": 10850, "BSTAR": 0.00033434683, "MEAN_MOTION_DOT": 8.143e-05, "MEAN_MOTION_DDOT": 0}, "tle": {"line1": "1 58647U 23205C   25343.00058872  .00008143  00000+0  33435-3 0  9995", "line2": "2 58647  97.3622   2.6956 0006077 284.3780  75.6783 15.24451341108501"}}, "geometry": {"type": "Point", "coordinates": [10.403293626844656, -44.86310738379681]}}, {"type": "Feature", "properties": {"norad_id": 58648, "name": "TIANMU-1 14", "group": "weather", "lat": 45.46922547402939, "lon": -5.183696824862605, "alt_km": 490.81777088002127, "timestamp": "2025-12-09T07:41:32.845315+00:00", "meta": {"OBJECT_NAME": "TIANMU-1 14", "OBJECT_ID": "2023-205D", "EPOCH": "2025-12-08T23:36:52.982784", "MEAN_MOTION": 15.24435059, "ECCENTRICITY": 0.00069408, "INCLINATION": 97.3555, "RA_OF_ASC_NODE": 2.0313, "ARG_OF_PERICENTER": 289.5524, "MEAN_ANOMALY": 70.4964, "EPHEMERIS_TYPE": 0, "CLASSIFICATION_TYPE": "U", "NORAD_CAT_ID": 58648, "ELEMENT_SET_NO": 999, "REV_AT_EPOCH": 10850, "BSTAR": 0.00031653901, "MEAN_MOTION_DOT": 7.702e-05, "MEAN_MOTION_DDOT": 0}, "tle": {"line1": "1 58648U 23205D   25342.98394656  .00007702  00000+0  31654-3 0  9996", "line2": "2 58648  97.3555   2.0313 0006940 289.5524  70.4964 15.24435059108502"}}, "geometry": {"type": "Point", "coordinates": [-5.183696824862605, 45.46922547402939]}}, {"type": "Feature", "properties": {"norad_id": 58660, "name": "TIANMU-1 19", "group": "weather", "lat": -77.5466721959408, "lon": -121.91040496589379, "alt_km": 487.14898315804294, "timestamp": "2025-12-09T07:41:32.845332+00:00", "meta": {"OBJECT_NAME": "TIANMU-1 19", "OBJECT_ID": "2023-208A", "EPOCH": "2025-12-08T22:41:52.265184", "MEAN_MOTION": 15.27740182, "ECCENTRICITY": 0.00040501, "INCLINATION": 97.4391, "RA_OF_ASC_NODE": 93.9908, "ARG_OF_PERICENTER": 270.1072, "MEAN_ANOMALY": 89.9703, "EPHEMERIS_TYPE": 0, "CLASSIFICATION_TYPE": "U", "NORAD_CAT_ID": 58660, "ELEMENT_SET_NO": 999, "REV_AT_EPOCH": 10824, "BSTAR": 0.00042708785, "MEAN_MOTION_DOT": 0.00011509, "MEAN_MOTION_DDOT": 0}, "tle": {"line1": "1 58660U 23208A   25342.94574381  .00011509  00000+0  42709-3 0  9997", "line2": "2 58660  97.4391  93.9908 0004050 270.1072  89.9703 15.27740182108244"}}, "geometry": {"type": "Point", "coordinates": [-121.91040496589379, -77.5466721959408]}}, {"type": "Feature", "properties": {"norad_id": 58661, "name": "TIANMU-1 20", "group": "weather", "lat": -40.07235423515414, "lon": 101.1143382435834, "alt_km": 482.1865074521902, "timestamp": "2025-12-09T07:41:32.845348+00:00", "meta": {"OBJECT_NAME": "TIANMU-1 20", "OBJECT_ID": "2023-208B", "EPOCH": "2025-12-08T22:26:40.911936", "MEAN_MOTION": 15.28931327, "ECCENTRICITY": 0.00063415, "INCLINATION": 97.4329, "RA_OF_ASC_NODE": 94.4241, "ARG_OF_PERICENTER": 282.0132, "MEAN_ANOMALY": 78.0396, "EPHEMERIS_TYPE": 0, "CLASSIFICATION_TYPE": "U", "NORAD_CAT_ID": 58661, "ELEMENT_SET_NO": 999, "REV_AT_EPOCH": 10831, "BSTAR": 0.00041548376, "MEAN_MOTION_DOT": 0.00011613, "MEAN_MOTION_DDOT": 0}, "tle": {"line1": "1 58661U 23208B   25342.93519574  .00011613  00000+0  41548-3 0  9996", "line2": "2 58661  97.4329  94.4241 0006341 282.0132  78.0396 15.28931327108315"}}, "geometry": {"type": "Point", "coordinates": [101.1143382435834, -40.07235423515414]}}]}